{
    "links": {
        "self": "http://www.neowsapp.com/rest/v1/neo/3842622?api_key=iIulBulltgU6a56xZRHN4H3l9WmuAYTsLGpBGhQ2"
    },
    "id": "3842622",
    "neo_reference_id": "3842622",
    "name": "(2019 KG3)",
    "designation": "2019 KG3",
    "nasa_jpl_url": "http://ssd.jpl.nasa.gov/sbdb.cgi?sstr=3842622",
    "absolute_magnitude_h": 25.8,
    "estimated_diameter": {
        "kilometers": {
            "estimated_diameter_min": 0.0183888672,
            "estimated_diameter_max": 0.0411187571
        },
        "meters": {
            "estimated_diameter_min": 18.388867207,
            "estimated_diameter_max": 41.1187571041
        },
        "miles": {
            "estimated_diameter_min": 0.0114263088,
            "estimated_diameter_max": 0.0255500032
        },
        "feet": {
            "estimated_diameter_min": 60.3309310875,
            "estimated_diameter_max": 134.9040630575
        }
    },
    "is_potentially_hazardous_asteroid": false,
    "close_approach_data": [
        {
            "close_approach_date": "2019-06-11",
            "close_approach_date_full": "2019-Jun-11 06:15",
            "epoch_date_close_approach": 1560233700000,
            "relative_velocity": {
                "kilometers_per_second": "6.7625079283",
                "kilometers_per_hour": "24345.0285417159",
                "miles_per_hour": "15127.0539847123"
            },
            "miss_distance": {
                "astronomical": "0.0418908588",
                "lunar": "16.2955440732",
                "kilometers": "6266783.248950756",
                "miles": "3893998.5437861928"
            },
            "orbiting_body": "Earth"
        }
    ],
    "orbital_data": {
        "orbit_id": "5",
        "orbit_determination_date": "2019-07-27 14:02:11",
        "first_observation_date": "2019-05-29",
        "last_observation_date": "2019-06-05",
        "data_arc_in_days": 7,
        "observations_used": 39,
        "orbit_uncertainty": "8",
        "minimum_orbit_intersection": ".0418244",
        "jupiter_tisserand_invariant": "4.730",
        "epoch_osculation": "2458633.5",
        "eccentricity": ".2550183916871289",
        "semi_major_axis": "1.388905211623275",
        "inclination": "10.09932417121722",
        "ascending_node_longitude": "73.82119608952317",
        "orbital_period": "597.8707933350717",
        "perihelion_distance": "1.034708838349236",
        "perihelion_argument": "209.6475316295004",
        "aphelion_distance": "1.743101584897314",
        "perihelion_time": "2458668.476373354167",
        "mean_anomaly": "338.9394388421925",
        "mean_motion": ".6021367894421313",
        "equinox": "J2000",
        "orbit_class": {
            "orbit_class_type": "AMO",
            "orbit_class_description": "Near-Earth asteroid orbits similar to that of 1221 Amor",
            "orbit_class_range": "1.017 AU < q (perihelion) < 1.3 AU"
        }
    },
    "is_sentry_object": false
}